stk.v.11.0

# WrittenBy    STK_v11.4.1

BEGIN Ephemeris

    NumberOfEphemerisPoints		 17303

    ScenarioEpoch		 1 Jan 2018 00:00:00.000000

# Epoch in JDate format: 2458119.50000000000000
# Epoch in YYDDD format:   18001.00000000000000


    InterpolationMethod		 Lagrange

    InterpolationSamplesM1		 5

    CentralBody		 Earth

    CoordinateSystem		 Fixed

    BEGIN SegmentBoundaryTimes

        0.0000000000000000e+00
        7.9491049920000005e+04
        1.6597714924800000e+05
        2.9858927875200001e+05
        3.3894950428800000e+05
        5.0615628451199998e+05
        5.1768778838400001e+05
        5.5804806489599997e+05
        6.8489467833599995e+05
        7.3102073097599996e+05
        9.0399351196799998e+05
        1.0020114331199999e+06

    END SegmentBoundaryTimes

# Time of first point: 1 Jan 2018 00:00:00.000000000 UTCG = 2458119.50000000000000 JDate = 18001.00000000000000 YYDDD

    EphemerisTimePosVel		

8.0682000000000000e+05 1.7042738483761059e+05 4.2693573615480633e+06 5.4746930360584715e+06 1.7323964028029525e+03 -5.9091138866446508e+03 4.5363119560655232e+03
8.0688000000000000e+05 2.7235751997221139e+05 3.9055379277291386e+06 5.7349562187818876e+06 1.6636197064116100e+03 -6.2137988209606956e+03 4.1360245891606910e+03
8.0694000000000000e+05 3.6986972405155987e+05 3.5242429709924124e+06 5.9706626643524822e+06 1.5852240016043586e+03 -6.4914101879267582e+03 3.7180474185299695e+03
8.0700000000000000e+05 4.6240387968555145e+05 3.1271352114301738e+06 6.1808042090507513e+06 1.4977852746345366e+03 -6.7406920320438221e+03 3.2841662262365085e+03
8.0706000000000000e+05 5.4943590092735633e+05 2.7159489831229835e+06 6.3644818419038495e+06 1.4019279439310399e+03 -6.9605139805337285e+03 2.8362322456643474e+03
8.0712000000000000e+05 6.3048052541359176e+05 2.2924825587358377e+06 6.5209093978013834e+06 1.2983210297435687e+03 -7.1498757991497669e+03 2.3761543549630305e+03
8.0718000000000000e+05 7.0509387082399114e+05 1.8585902176361959e+06 6.6494167788409758e+06 1.1876741346816993e+03 -7.3079113919690963e+03 1.9058911702645312e+03
8.0724000000000000e+05 7.7287574501342571e+05 1.4161740905586656e+06 6.7494526986784600e+06 1.0707332581278752e+03 -7.4338922583822414e+03 1.4274430623696167e+03
8.0730000000000000e+05 8.3347170050807216e+05 9.6717581303066050e+05 6.8205869459123658e+06 9.4827646603093001e+02 -7.5272304204999600e+03 9.4284411472532452e+02
8.0736000000000000e+05 8.8657482530746376e+05 5.1356801899667346e+05 6.8625121634478448e+06 8.2110943607858292e+02 -7.5874808328460040e+03 4.5415403519592746e+02
8.0742000000000000e+05 9.3192726309415954e+05 5.7345705412404270e+04 6.8750451414004378e+06 6.9006089682088464e+02 -7.6143432836446118e+03 -3.6549970376567131e+01
8.0748000000000000e+05 9.6932145702948840e+05 -3.9948250188367977e+05 6.8581276214672578e+06 5.5597797807685515e+02 -7.6076637934494247e+03 -5.2718135827090975e+02
8.0754000000000000e+05 9.9860111232506856e+05 -8.5490315096271061e+05 6.8118266108881989e+06 4.1972148898960677e+02 -7.5674355125570964e+03 -1.0156524383456950e+03
8.0760000000000000e+05 1.0196618737396536e+06 -1.3069068051570817e+06 6.7363342042121077e+06 2.8216113947984331e+02 -7.4937991138857651e+03 -1.4998825954546689e+03
8.0766000000000000e+05 1.0324517150854990e+06 -1.7534968925370905e+06 6.6319669111607401e+06 1.4417072062935981e+02 -7.3870426730951276e+03 -1.9778065389205346e+03
8.0772000000000000e+05 1.0369710387610202e+06 -2.1926985324479956e+06 6.4991644890302597e+06 6.6232597356013230e+00 -7.2476010230019992e+03 -2.4473825762718734e+03
8.0778000000000000e+05 1.0332724842839560e+06 -2.6225673071438596e+06 6.3384882783683762e+06 -1.2961383358568386e+02 -7.0760545651241164e+03 -2.9066009042239389e+03
8.0784000000000000e+05 1.0214604458064111e+06 -3.0411979454101440e+06 6.1506190411962578e+06 -2.6368361283132703e+02 -6.8731275177699836e+03 -3.3534919054436327e+03
8.0790000000000000e+05 1.0016902996738172e+06 -3.4467328837509011e+06 5.9363543018740518e+06 -3.9474441276261257e+02 -6.6396855777553392e+03 -3.7861344341839813e+03
8.0796000000000000e+05 9.7416734426225373e+05 -3.8373706693303599e+06 5.6966051918681748e+06 -5.2197461979825755e+02 -6.3767329717680241e+03 -4.2026640676691495e+03
8.0802000000000000e+05 9.3914545561245561e+05 -4.2113741672593541e+06 5.4323928013458867e+06 -6.4457737226238464e+02 -6.0854088739492690e+03 -4.6012812931854005e+03
8.0808000000000000e+05 8.9692546376958233e+05 -4.5670785337498980e+06 5.1448440423418265e+06 -7.6178516622636278e+02 -5.7669831681122532e+03 -4.9802595941938453e+03
8.0814000000000000e+05 8.4785325625939516e+05 -4.9028989150866680e+06 4.8351870308674322e+06 -8.7286434067051289e+02 -5.4228515369313745e+03 -5.3379533915199008e+03
8.0820000000000000e+05 7.9231761675528332e+05 -5.2173378316906989e+06 4.5047459980169861e+06 -9.7711941399279272e+02 -5.0545298655874240e+03 -5.6728057895302099e+03
8.0826000000000000e+05 7.3074780871693627e+05 -5.5089922058930360e+06 4.1549357433551201e+06 -1.0738972423812411e+03 -4.6636479542191109e+03 -5.9833560714377181e+03
8.0832000000000000e+05 6.6361091558991501e+05 -5.7765599919107361e+06 3.7872556473940783e+06 -1.1625909694673683e+03 -4.2519425417294760e+03 -6.2682468832354225e+03
8.0838000000000000e+05 5.9140895101303468e+05 -6.0188463669517776e+06 3.4032832637052252e+06 -1.2426437360806963e+03 -3.8212496527912263e+03 -6.5262310424546167e+03
8.0844000000000000e+05 5.1467575435950060e+05 -6.2347694433744242e+06 3.0046675151226418e+06 -1.3135521189017550e+03 -3.3734962900615765e+03 -6.7561779061277330e+03
8.0850000000000000e+05 4.3397368880012387e+05 -6.4233654634629888e+06 2.5931215224690982e+06 -1.3748692674341260e+03 -2.9106915043110307e+03 -6.9570792321978251e+03
8.0856000000000000e+05 3.4989016087958735e+05 -6.5837934406769937e+06 2.1704150981538706e+06 -1.4262077100270130e+03 -2.4349168860292325e+03 -7.1280544702522147e+03
8.0862000000000000e+05 2.6303398230241315e+05 -6.7153392141706059e+06 1.7383669407729821e+06 -1.4672418016863669e+03 -1.9483165327527640e+03 -7.2683554208795804e+03
8.0868000000000000e+05 1.7403159618610871e+05 -6.8174188869592715e+06 1.2988365703440062e+06 -1.4977097891062922e+03 -1.4530865564571700e+03 -7.3773702081374558e+03
8.0874000000000000e+05 8.3523191420389703e+04 -6.8895816222665273e+06 8.5371604695980402e+05 -1.5174154716848734e+03 -9.5146420455022451e+02 -7.4546265164428423e+03
8.0880000000000000e+05 -7.8412700682192390e+03 -6.9315117772634579e+06 4.0492151832640986e+05 -1.5262294411950361e+03 -4.4571667593667712e+02 -7.4997940515049177e+03
8.0886000000000000e+05 -9.9406087435850204e+04 -6.9430303585222485e+06 -4.5615356203636045e+04 -1.5240898871660886e+03 6.1870279968119291e+01 -7.5126861944682259e+03
8.0892000000000000e+05 -1.9051389008000804e+05 -6.9240957889483962e+06 -4.9595605595778045e+05 -1.5110029597843968e+03 5.6900388876341174e+02 -7.4932608289550699e+03
8.0898000000000000e+05 -2.8050971515343437e+05 -6.8748039816164179e+06 -9.4416387361327838e+05 -1.4870426871127640e+03 1.0733959059230078e+03 -7.4416203318696034e+03
8.0904000000000000e+05 -3.6874506671213062e+05 -6.7953877216925574e+06 -1.3883125639944552e+06 -1.4523504485203111e+03 1.5727741051194648e+03 -7.3580107303153181e+03
8.0910000000000000e+05 -4.5458193004878197e+05 -6.6862153633588180e+06 -1.8264949172991596e+06 -1.4071340112643552e+03 2.0648936055705312e+03 -7.2428200384292386e+03
8.0916000000000000e+05 -5.3739671533031680e+05 -6.5477888542327918e+06 -2.2568312082267478e+06 -1.3516661420327196e+03 2.5475479473887740e+03 -7.0965757990024676e+03
8.0922000000000000e+05 -6.1658410551215708e+05 -6.3807411050863927e+06 -2.6774774743184634e+06 -1.2862828098037226e+03 3.0185798292706895e+03 -6.9199418650992720e+03
8.0928000000000000e+05 -6.9156078461306775e+05 -6.1858327275975971e+06 -3.0866335792345270e+06 -1.2113810004918087e+03 3.4758914299222110e+03 -6.7137144662033115e+03
8.0934000000000000e+05 -7.6176902377794590e+05 -5.9639481673231283e+06 -3.4825510196330748e+06 -1.1274161674138620e+03 3.9174542431679192e+03 -6.4788176114378084e+03
8.0940000000000000e+05 -8.2668010409230855e+05 -5.7160912629795521e+06 -3.8635404376881430e+06 -1.0348993445533392e+03 4.3413183664267553e+03 -6.2162978889098231e+03
8.0946000000000000e+05 -8.8579755680420110e+05 -5.4433802664057147e+06 -4.2279788049881356e+06 -9.3439395185813316e+02 4.7456211928273551e+03 -5.9273187250571209e+03
8.0952000000000000e+05 -9.3866020341380069e+05 -5.1470423602070026e+06 -4.5743162474989472e+06 -8.2651232335131749e+02 5.1285954683389446e+03 -5.6131541709229205e+03
8.0958000000000000e+05 -9.8484497996438411e+05 -4.8284077120406665e+06 -4.9010824853330143e+06 -7.1191198965922763e+02 5.4885766865273263e+03 -5.2751822835229432e+03
8.0964000000000000e+05 -1.0239695317691069e+06 -4.4889031057887711e+06 -5.2068928651434155e+06 -5.9129174668974065e+02 5.8240098045645009e+03 -4.9148781699219717e+03
8.0970000000000000e+05 -1.0556945666950548e+06 -4.1300451905096844e+06 -5.4904539669479420e+06 -4.6538754167488423e+02 6.1334552745717228e+03 -4.5338067594002569e+03
8.0976000000000000e+05 -1.0797259569631859e+06 -3.7534333881099429e+06 -5.7505687709850259e+06 -3.3496820669839411e+02 6.4155943939423551e+03 -4.1336153653193596e+03
8.0982000000000000e+05 -1.0958165811790675e+06 -3.3607425001851413e+06 -5.9861413737361850e+06 -2.0083106824871405e+02 6.6692339867107876e+03 -3.7160260931812986e+03
8.0988000000000000e+05 -1.1037678999580587e+06 -2.9537150535345958e+06 -6.1961812454323638e+06 -6.3797459382222229e+01 6.8933104350660833e+03 -3.2828281451774837e+03
8.0994000000000000e+05 -1.1034312600324424e+06 -2.5341534225377995e+06 -6.3798070241489438e+06 7.5291841134845441e+01 7.0868930855990156e+03 -2.8358700645130702e+03
8.1000000000000000e+05 -1.0947089231146597e+06 -2.1039117649869579e+06 -6.5362498439468481e+06 2.1558122069151804e+02 7.2491870587117028e+03 -2.3770519552694441e+03
END Ephemeris
